[Satellite]
VERSION=1.1
NAME=ORBCOMM FM25 [+]
NICKNAME=ORBCOMM FM25 [+]
TLE1=1 25479U 98053E   17186.21700186 -.00000028  00000-0  41094-4 0  9993
TLE2=2 25479  45.0088 260.6800 0005324 197.2149 162.8517 14.32536800980967
